[{"OBJECT_NAME":"AMAZONIA 1","OBJECT_ID":"2021-015A","EPOCH":"2026-03-09T17:05:01.705920","MEAN_MOTION":14.40836291,"ECCENTRICITY":0.00039353,"INCLINATION":98.4264,"RA_OF_ASC_NODE":142.7385,"ARG_OF_PERICENTER":123.8493,"MEAN_ANOMALY":236.3071,"EPHEMERIS_TYPE":0,"CLASSIFICATION_TYPE":"U","NORAD_CAT_ID":47699,"ELEMENT_SET_NO":999,"REV_AT_EPOCH":26432,"BSTAR":0.00010973552,"MEAN_MOTION_DOT":3.08e-6,"MEAN_MOTION_DDOT":0},{"OBJECT_NAME":"COSMOS 2251 DEB","OBJECT_ID":"1993-036AKH","EPOCH":"2026-03-06T12:23:00.086208","MEAN_MOTION":13.93289547,"ECCENTRICITY":0.02411544,"INCLINATION":74.0202,"RA_OF_ASC_NODE":351.1264,"ARG_OF_PERICENTER":142.2262,"MEAN_ANOMALY":30.2017,"EPHEMERIS_TYPE":0,"CLASSIFICATION_TYPE":"U","NORAD_CAT_ID":35439,"ELEMENT_SET_NO":999,"REV_AT_EPOCH":85127,"BSTAR":0.0014570499,"MEAN_MOTION_DOT":2.397e-5,"MEAN_MOTION_DDOT":0}]
